{
  "type": "FeatureCollection",
  "features": [
    {
      "type": "Feature",
      "properties": {
        "norad_id": 36828,
        "name": "BEIDOU-2 IGSO-1 (C06)",
        "group": "beidou",
        "lat": 27.380741994359216,
        "lon": -37.34811993548255,
        "alt_km": 35709.42884418499,
        "timestamp": "2025-12-20T07:33:51.077934+00:00",
        "meta_object_name": "BEIDOU-2 IGSO-1 (C06)",
        "meta_object_id": "2010-036A",
        "meta_epoch": "2025-12-14T21:38:21.623424",
        "meta_mean_motion": 1.00275796,
        "meta_eccentricity": 0.00512569,
        "meta_inclination": 54.2866,
        "meta_ra_of_asc_node": 164.6279,
        "meta_arg_of_pericenter": 215.8888,
        "meta_mean_anomaly": 135.7931,
        "meta_ephemeris_type": 0,
        "meta_classification_type": "U",
        "meta_norad_cat_id": 36828,
        "meta_element_set_no": 999,
        "meta_rev_at_epoch": 5624,
        "meta_bstar": 0,
        "meta_mean_motion_dot": -2.4e-07,
        "meta_mean_motion_ddot": 0,
        "tle_line1": "1 36828U 10036A   25348.90163916 -.00000024  00000+0  00000+0 0  9999",
        "tle_line2": "2 36828  54.2866 164.6279 0051256 215.8888 135.7931  1.00275796 56247"
      },
      "geometry": {
        "type": "Point",
        "coordinates": [
          -37.34811993548255,
          27.380741994359216
        ]
      }
    },
    {
      "type": "Feature",
      "properties": {
        "norad_id": 37210,
        "name": "BEIDOU-2 G4 (C04)",
        "group": "beidou",
        "lat": -2.949496749122738,
        "lon": 2.8422010101876776,
        "alt_km": 35794.17944100533,
        "timestamp": "2025-12-20T07:33:51.077958+00:00",
        "meta_object_name": "BEIDOU-2 G4 (C04)",
        "meta_object_id": "2010-057A",
        "meta_epoch": "2025-12-19T19:09:33.042240",
        "meta_mean_motion": 1.00272058,
        "meta_eccentricity": 0.00104273,
        "meta_inclination": 3.2013,
        "meta_ra_of_asc_node": 69.9127,
        "meta_arg_of_pericenter": 192.6377,
        "meta_mean_anomaly": 273.5616,
        "meta_ephemeris_type": 0,
        "meta_classification_type": "U",
        "meta_norad_cat_id": 37210,
        "meta_element_set_no": 999,
        "meta_rev_at_epoch": 5549,
        "meta_bstar": 0,
        "meta_mean_motion_dot": -9e-07,
        "meta_mean_motion_ddot": 0,
        "tle_line1": "1 37210U 10057A   25353.79829910 -.00000090  00000+0  00000+0 0  9997",
        "tle_line2": "2 37210   3.2013  69.9127 0010427 192.6377 273.5616  1.00272058 55495"
      },
      "geometry": {
        "type": "Point",
        "coordinates": [
          2.8422010101876776,
          -2.949496749122738
        ]
      }
    },
    {
      "type": "Feature",
      "properties": {
        "norad_id": 37256,
        "name": "BEIDOU-2 IGSO-2 (C07)",
        "group": "beidou",
        "lat": 26.145662841580815,
        "lon": -59.64754264594083,
        "alt_km": 35983.68770475306,
        "timestamp": "2025-12-20T07:33:51.077973+00:00",
        "meta_object_name": "BEIDOU-2 IGSO-2 (C07)",
        "meta_object_id": "2010-068A",
        "meta_epoch": "2025-12-19T17:11:58.178112",
        "meta_mean_motion": 1.00284373,
        "meta_eccentricity": 0.00484108,
        "meta_inclination": 47.8732,
        "meta_ra_of_asc_node": 274.0632,
        "meta_arg_of_pericenter": 216.3467,
        "meta_mean_anomaly": 324.0365,
        "meta_ephemeris_type": 0,
        "meta_classification_type": "U",
        "meta_norad_cat_id": 37256,
        "meta_element_set_no": 999,
        "meta_rev_at_epoch": 5499,
        "meta_bstar": 0,
        "meta_mean_motion_dot": -1.93e-06,
        "meta_mean_motion_ddot": 0,
        "tle_line1": "1 37256U 10068A   25353.71664558 -.00000193  00000+0  00000+0 0  9990",
        "tle_line2": "2 37256  47.8732 274.0632 0048410 216.3467 324.0365  1.00284373 54994"
      },
      "geometry": {
        "type": "Point",
        "coordinates": [
          -59.64754264594083,
          26.145662841580815
        ]
      }
    },
    {
      "type": "Feature",
      "properties": {
        "norad_id": 37384,
        "name": "BEIDOU-2 IGSO-3 (C08)",
        "group": "beidou",
        "lat": -62.12193945537275,
        "lon": -51.42181040222697,
        "alt_km": 35768.30849763259,
        "timestamp": "2025-12-20T07:33:51.077986+00:00",
        "meta_object_name": "BEIDOU-2 IGSO-3 (C08)",
        "meta_object_id": "2011-013A",
        "meta_epoch": "2025-12-19T15:24:21.799872",
        "meta_mean_motion": 1.00269211,
        "meta_eccentricity": 0.0035344,
        "meta_inclination": 62.1523,
        "meta_ra_of_asc_node": 41.8505,
        "meta_arg_of_pericenter": 187.8464,
        "meta_mean_anomaly": 197.2749,
        "meta_ephemeris_type": 0,
        "meta_classification_type": "U",
        "meta_norad_cat_id": 37384,
        "meta_element_set_no": 999,
        "meta_rev_at_epoch": 5386,
        "meta_bstar": 0,
        "meta_mean_motion_dot": -1.68e-06,
        "meta_mean_motion_ddot": 0,
        "tle_line1": "1 37384U 11013A   25353.64191898 -.00000168  00000+0  00000+0 0  9999",
        "tle_line2": "2 37384  62.1523  41.8505 0035344 187.8464 197.2749  1.00269211 53869"
      },
      "geometry": {
        "type": "Point",
        "coordinates": [
          -51.42181040222697,
          -62.12193945537275
        ]
      }
    },
    {
      "type": "Feature",
      "properties": {
        "norad_id": 37763,
        "name": "BEIDOU-2 IGSO-4 (C09)",
        "group": "beidou",
        "lat": 39.71336927087262,
        "lon": -49.03417834598514,
        "alt_km": 35901.08198734832,
        "timestamp": "2025-12-20T07:33:51.077999+00:00",
        "meta_object_name": "BEIDOU-2 IGSO-4 (C09)",
        "meta_object_id": "2011-038A",
        "meta_epoch": "2025-12-17T23:29:21.564384",
        "meta_mean_motion": 1.00281312,
        "meta_eccentricity": 0.01493143,
        "meta_inclination": 54.5836,
        "meta_ra_of_asc_node": 167.2999,
        "meta_arg_of_pericenter": 230.2426,
        "meta_mean_anomaly": 136.1954,
        "meta_ephemeris_type": 0,
        "meta_classification_type": "U",
        "meta_norad_cat_id": 37763,
        "meta_element_set_no": 999,
        "meta_rev_at_epoch": 5283,
        "meta_bstar": 0,
        "meta_mean_motion_dot": 6.5e-07,
        "meta_mean_motion_ddot": 0,
        "tle_line1": "1 37763U 11038A   25351.97872181  .00000065  00000+0  00000+0 0  9997",
        "tle_line2": "2 37763  54.5836 167.2999 0149314 230.2426 136.1954  1.00281312 52838"
      },
      "geometry": {
        "type": "Point",
        "coordinates": [
          -49.03417834598514,
          39.71336927087262
        ]
      }
    },
    {
      "type": "Feature",
      "properties": {
        "norad_id": 37948,
        "name": "BEIDOU-2 IGSO-5 (C10)",
        "group": "beidou",
        "lat": 16.633407178869053,
        "lon": -70.67415127780227,
        "alt_km": 36214.71519630129,
        "timestamp": "2025-12-20T07:33:51.078012+00:00",
        "meta_object_name": "BEIDOU-2 IGSO-5 (C10)",
        "meta_object_id": "2011-073A",
        "meta_epoch": "2025-12-19T18:17:17.237184",
        "meta_mean_motion": 1.00289893,
        "meta_eccentricity": 0.01098798,
        "meta_inclination": 48.0071,
        "meta_ra_of_asc_node": 273.7726,
        "meta_arg_of_pericenter": 222.325,
        "meta_mean_anomaly": 320.2143,
        "meta_ephemeris_type": 0,
        "meta_classification_type": "U",
        "meta_norad_cat_id": 37948,
        "meta_element_set_no": 999,
        "meta_rev_at_epoch": 5133,
        "meta_bstar": 0,
        "meta_mean_motion_dot": -1.59e-06,
        "meta_mean_motion_ddot": 0,
        "tle_line1": "1 37948U 11073A   25353.76200506 -.00000159  00000+0  00000+0 0  9991",
        "tle_line2": "2 37948  48.0071 273.7726 0109879 222.3250 320.2143  1.00289893 51334"
      },
      "geometry": {
        "type": "Point",
        "coordinates": [
          -70.67415127780227,
          16.633407178869053
        ]
      }
    },
    {
      "type": "Feature",
      "properties": {
        "norad_id": 38091,
        "name": "BEIDOU-2 G5 (C05)",
        "group": "beidou",
        "lat": -0.6014299915693723,
        "lon": -98.7294249004052,
        "alt_km": 35745.29611964547,
        "timestamp": "2025-12-20T07:33:51.078042+00:00",
        "meta_object_name": "BEIDOU-2 G5 (C05)",
        "meta_object_id": "2012-008A",
        "meta_epoch": "2025-12-19T16:03:31.750272",
        "meta_mean_motion": 1.00268606,
        "meta_eccentricity": 0.0012969,
        "meta_inclination": 3.1258,
        "meta_ra_of_asc_node": 70.6861,
        "meta_arg_of_pericenter": 231.3522,
        "meta_mean_anomaly": 86.1393,
        "meta_ephemeris_type": 0,
        "meta_classification_type": "U",
        "meta_norad_cat_id": 38091,
        "meta_element_set_no": 999,
        "meta_rev_at_epoch": 5056,
        "meta_bstar": 0,
        "meta_mean_motion_dot": 7.9e-07,
        "meta_mean_motion_ddot": 0,
        "tle_line1": "1 38091U 12008A   25353.66911748  .00000079  00000+0  00000+0 0  9996",
        "tle_line2": "2 38091   3.1258  70.6861 0012969 231.3522  86.1393  1.00268606 50560"
      },
      "geometry": {
        "type": "Point",
        "coordinates": [
          -98.7294249004052,
          -0.6014299915693723
        ]
      }
    }
  ]
}